CZ-4B R/B               
1 28059U 03049C   17325.24205178  .00000037  00000-0  20786-4 0  9994
2 28059  98.5399 214.1282 0051042 127.3469 343.3610 14.52507588746476
CZ-2C R/B               
1 28222U 04012C   17324.96344602  .00001106  00000-0  71297-4 0  9992
2 28222  97.5465 278.6954 0048451  10.1758  31.9180 15.09487510744264
SL-16 R/B               
1 28353U 04021B   17324.89154381 -.00000174  00000-0 -66029-4 0  9995
2 28353  70.9975 109.8283 0006655 305.2171  54.8327 14.14196919694319
CZ-2C R/B               
1 28480U 04046B   17325.24324168  .00000025  00000-0  24569-4 0  9991
2 28480  98.1940  51.3088 0143071 120.8905 297.3389 14.25657158676612
ARIANE 5 R/B            
1 28499U 04049H   17324.86269490  .00000101  00000-0  19686-4 0  9996
2 28499  98.0714  48.7226 0093635  70.0212  44.7666 14.79862566697166
CZ-2D R/B               
1 28738U 05024B   17325.12442752  .00000573  00000-0  37690-4 0  9998
2 28738  97.4799 358.7905 0012182 177.0260 183.1045 15.11357874679511
SUZAKU (ASTRO-EII)      
1 28773U 05025A   17325.49032915  .00001592  00000-0  75951-4 0  9998
2 28773  31.3840 356.0755 0004624 127.6314 232.4753 15.16210914681246
ALOS (DAICHI)           
1 28931U 06002A   17325.50952004  .00000245  00000-0  57005-4 0  9996
2 28931  97.8321 344.9060 0001585 110.3307 249.8072 14.62425266630453
H-2A R/B                
1 28932U 06002B   17325.22437365  .00000233  00000-0  27857-4 0  9993
2 28932  98.2135 254.4786 0090105 156.0988 336.4416 14.91553855641219
AKARI (ASTRO-F)         
1 28939U 06005A   17325.15918461  .00003132  00000-0  95289-4 0  9991
2 28939  98.2336 183.2615 0104350   2.4546 357.7182 15.29733964637103
RESURS-DK 1             
1 29228U 06021A   17325.52164699  .00000256  00000-0  26739-4 0  9996
2 29228  69.9368  57.7618 0001602 121.1135 239.0183 15.02248796631722
GENESIS 1               
1 29252U 06029A   17324.86152886  .00000637  00000-0  42023-4 0  9999
2 29252  64.5028 133.7194 0032451 311.3209  48.5121 15.17059594625593
CZ-4B R/B               
1 29507U 06046C   17325.08885792  .00000236  00000-0  23338-4 0  9998
2 29507  97.7794 332.7745 0054031  75.6003 285.1209 15.00155716604562
CZ-2C R/B               
1 31114U 07010B   17325.55396526  .00000033  00000-0  34095-4 0  9998
2 31114  98.3827 219.7416 0060717 118.1529 242.5801 14.19257791549845
COSMO-SKYMED 1          
1 31598U 07023A   17325.47313429  .00000164  00000-0  27177-4 0  9998
2 31598  97.8869 146.9308 0001574  84.7475 275.3934 14.82154976565745
GENESIS 2               
1 31789U 07028A   17324.91598285  .00000638  00000-0  43047-4 0  9998
2 31789  64.5031 172.0497 0013034 219.8250 140.1917 15.16323391572671
COSMOS 2428             
1 31792U 07029A   17325.50845766  .00000346  00000-0  21375-3 0  9993
2 31792  70.9369  81.9315 0006574  26.4660 333.6795 14.12384063536283
SL-16 R/B               
1 31793U 07029B   17324.74580666  .00000129  00000-0  92183-4 0  9999
2 31793  70.9777  60.3064 0002772 270.7849 200.7817 14.14395050536850
CZ-4B DEB               
1 33411U 08053D   17315.40721526  .11288782  24851-5  12794-2 0  9999
2 33411  97.3632  13.7523 0007936 279.3174  80.7226 16.36985159499531
KORONAS-FOTON           
1 33504U 09003A   17324.84447910  .00000689  00000-0  35093-4 0  9998
2 33504  82.4438  77.2962 0017941 290.1120  69.8181 15.15013217485091
TIANGONG 1              
1 37820U 11053A   17325.44940311  .00055570  94008-5  16563-3 0  9996
2 37820  42.7550 309.2976 0017835 127.1604   9.2509 15.92062358352912
H-2A R/B                
1 38341U 12025E   17325.31463410  .00000269  00000-0  39287-4 0  9999
2 38341  98.4260  51.0416 0056029  14.2133 346.0640 14.83670611298170
CUSAT 2 & FALCON 9 R/B  
1 39271U 13055G   17324.78509087  .00006440  00000-0  16170-3 0  9999
2 39271  80.9670 191.2201 0625101  98.2792 268.9733 14.39356968215136
ALOS-2                  
1 39766U 14029A   17325.49662242  .00000182  00000-0  31272-4 0  9990
2 39766  97.9227  60.5691 0001457  81.2154 278.9210 14.79473742188862
SL-27 R/B               
1 40354U 14084B   17324.95036021  .00001277  00000-0  33956-4 0  9993
2 40354  74.7381 169.5538 0038275 113.6935 246.8300 15.38645178163560
ASTRO-H (HITOMI)        
1 41337U 16012A   17325.00935170  .00000325  00000-0  19585-4 0  9993
2 41337  31.0049 205.0037 0012412 149.9706 210.1642 14.98397263 96463
TIANGONG-2              
1 41765U 16057A   17325.41883175  .00005066  00000-0  66579-4 0  9991
2 41765  42.7824 140.6050 0004118 263.8437 176.9286 15.59561621 67525
SHENZHOU-11 MODULE      
1 41868U 16061G   17324.80956319  .00010321  00000-0  91809-4 0  9997
2 41868  42.7929 131.5876 0001958 138.0362 355.4423 15.68601764 57517
